{
    "links": {
        "self": "http://www.neowsapp.com/rest/v1/neo/3787618?api_key=iIulBulltgU6a56xZRHN4H3l9WmuAYTsLGpBGhQ2"
    },
    "id": "3787618",
    "neo_reference_id": "3787618",
    "name": "(2017 UL2)",
    "designation": "2017 UL2",
    "nasa_jpl_url": "http://ssd.jpl.nasa.gov/sbdb.cgi?sstr=3787618",
    "absolute_magnitude_h": 22.1,
    "estimated_diameter": {
        "kilometers": {
            "estimated_diameter_min": 0.1010543415,
            "estimated_diameter_max": 0.2259643771
        },
        "meters": {
            "estimated_diameter_min": 101.054341542,
            "estimated_diameter_max": 225.9643771094
        },
        "miles": {
            "estimated_diameter_min": 0.0627922373,
            "estimated_diameter_max": 0.140407711
        },
        "feet": {
            "estimated_diameter_min": 331.5431259047,
            "estimated_diameter_max": 741.3529669956
        }
    },
    "is_potentially_hazardous_asteroid": false,
    "close_approach_data": [
        {
            "close_approach_date": "2017-09-25",
            "close_approach_date_full": "2017-Sep-25 09:41",
            "epoch_date_close_approach": 1506332460000,
            "relative_velocity": {
                "kilometers_per_second": "14.6855113799",
                "kilometers_per_hour": "52867.8409677955",
                "miles_per_hour": "32850.0204057949"
            },
            "miss_distance": {
                "astronomical": "0.2657964559",
                "lunar": "103.3948213451",
                "kilometers": "39762583.656188933",
                "miles": "24707323.7901279554"
            },
            "orbiting_body": "Earth"
        }
    ],
    "orbital_data": {
        "orbit_id": "1",
        "orbit_determination_date": "2017-10-22 07:42:07",
        "first_observation_date": "2017-10-16",
        "last_observation_date": "2017-10-22",
        "data_arc_in_days": 6,
        "observations_used": 26,
        "orbit_uncertainty": "9",
        "minimum_orbit_intersection": ".168467",
        "jupiter_tisserand_invariant": "5.220",
        "epoch_osculation": "2458045.5",
        "eccentricity": ".4546134176162824",
        "semi_major_axis": "1.169091394076147",
        "inclination": "24.27671430702804",
        "ascending_node_longitude": "198.9047473384242",
        "orbital_period": "461.7119576324891",
        "perihelion_distance": ".6376067599094057",
        "perihelion_argument": "51.2474957861922",
        "aphelion_distance": "1.700576028242888",
        "perihelion_time": "2457935.560314390810",
        "mean_anomaly": "85.72073164891195",
        "mean_motion": ".7797069017791192",
        "equinox": "J2000",
        "orbit_class": {
            "orbit_class_type": "APO",
            "orbit_class_description": "Near-Earth asteroid orbits which cross the Earth’s orbit similar to that of 1862 Apollo",
            "orbit_class_range": "a (semi-major axis) > 1.0 AU; q (perihelion) < 1.017 AU"
        }
    },
    "is_sentry_object": false
}